NORAD_CAT_ID,OBJECT_NAME,OBJECT_TYPE,EPOCH,MEAN_MOTION,ECCENTRICITY,INCLINATION,RA_OF_ASC_NODE,ARG_OF_PERICENTER,MEAN_ANOMALY,BSTAR,MEAN_MOTION_DOT,MEAN_MOTION_DDOT,TLE_LINE0,TLE_LINE1,TLE_LINE2,SEMIMAJOR_AXIS,PERIOD,APOGEE,PERIGEE,DECAYED
52662.0,STARLINK-4044,PAYLOAD,2024-01-25 23:49:09,15.08844854,0.000188,53.2188,27.3884,73.0497,287.0701,8.5627e-05,1.075e-05,0.0,0 STARLINK-4044,1 52662U 22053G   24025.99246956  .00001075  00000-0  85627-4 0  9991,2 52662  53.2188  27.3884 0001880  73.0497 287.0701 15.08844854 94240,6917.866,95.437,541.031,538.43,0.0
52662.0,STARLINK-4044,PAYLOAD,2024-01-26 06:10:42,15.08841684,0.0001762,53.22,26.1938,77.7117,282.4072,4.8779e-05,4.88e-06,0.0,0 STARLINK-4044,1 52662U 22053G   24026.25743357  .00000488  00000-0  48779-4 0  9992,2 52662  53.2200  26.1938 0001762  77.7117 282.4072 15.08841684 94283,6917.875,95.437,540.959,538.521,0.0
52662.0,STARLINK-4044,PAYLOAD,2024-01-27 09:12:14,15.08852813,0.0001591,53.2197,21.1364,112.9632,247.1528,-5.6032e-06,-3.77e-06,0.0,0 STARLINK-4044,1 52662U 22053G   24027.38350444 -.00000377  00000-0 -56032-5 0  9999,2 52662  53.2197  21.1364 0001591 112.9632 247.1528 15.08852813 94459,6917.841,95.437,540.807,538.606,0.0
52662.0,STARLINK-4044,PAYLOAD,2024-01-28 04:16:53,15.08837085,0.0001682,53.2202,17.5685,110.4939,249.6234,3.9252e-05,3.37e-06,0.0,0 STARLINK-4044,1 52662U 22053G   24028.17839376  .00000337  00000-0  39252-4 0  9991,2 52662  53.2202  17.5685 0001682 110.4939 249.6234 15.08837085 94573,6917.889,95.438,540.918,538.591,0.0
52662.0,STARLINK-4044,PAYLOAD,2024-01-28 09:03:02,15.0883983,0.0001402,53.2197,16.6769,101.4152,258.6998,6.2974e-05,7.14e-06,0.0,0 STARLINK-4044,1 52662U 22053G   24028.37711233  .00000714  00000-0  62974-4 0  9990,2 52662  53.2197  16.6769 0001402 101.4152 258.6998 15.08839830 94607,6917.881,95.438,540.716,538.776,0.0
52662.0,STARLINK-4044,PAYLOAD,2024-01-29 04:07:40,15.0884015,0.0002042,53.2195,13.1063,130.0165,230.1007,1.7406e-06,-2.61e-06,0.0,0 STARLINK-4044,1 52662U 22053G   24029.17199441 -.00000261  00000-0  17406-5 0  9999,2 52662  53.2195  13.1063 0002042 130.0165 230.1007 15.08840150 94723,6917.88,95.438,541.158,538.332,0.0
52662.0,STARLINK-4044,PAYLOAD,2024-01-30 03:58:27,15.0883967,0.0001539,53.2192,8.6467,109.2522,250.8637,5.8866e-05,6.49e-06,0.0,0 STARLINK-4044,1 52662U 22053G   24030.16559584  .00000649  00000-0  58866-4 0  9991,2 52662  53.2192   8.6467 0001539 109.2522 250.8637 15.08839670 94871,6917.881,95.438,540.811,538.682,0.0
52662.0,STARLINK-4044,PAYLOAD,2024-01-30 21:27:42,15.08835109,0.0001526,53.2193,5.3778,109.8593,250.2564,5.2952e-05,5.55e-06,0.0,0 STARLINK-4044,1 52662U 22053G   24030.89424026  .00000555  00000-0  52952-4 0  9999,2 52662  53.2193   5.3778 0001526 109.8593 250.2564 15.08835109 94989,6917.895,95.438,540.816,538.705,0.0
52662.0,STARLINK-4044,PAYLOAD,2024-01-31 03:49:14,15.08839543,0.0001461,53.2198,4.1904,102.7952,257.3204,5.1958e-05,5.39e-06,0.0,0 STARLINK-4044,1 52662U 22053G   24031.15919836  .00000539  00000-0  51958-4 0  9994,2 52662  53.2198   4.1904 0001461 102.7952 257.3204 15.08839543 95022,6917.882,95.438,540.757,538.736,0.0
52662.0,STARLINK-4044,PAYLOAD,2024-02-01 03:40:02,15.08836654,0.0001528,53.2203,359.7304,102.2016,257.9147,3.9177e-05,3.36e-06,0.0,0 STARLINK-4044,1 52662U 22053G   24032.15280207  .00000336  00000-0  39177-4 0  9992,2 52662  53.2203 359.7304 0001528 102.2016 257.9147 15.08836654 95170,6917.891,95.438,540.813,538.699,0.0
52662.0,STARLINK-4044,PAYLOAD,2024-02-01 05:15:25,15.08837647,0.0001438,53.2197,359.433,88.8188,271.2969,4.7221e-05,4.64e-06,0.0,0 STARLINK-4044,1 52662U 22053G   24032.21904185  .00000464  00000-0  47221-4 0  9998,2 52662  53.2197 359.4330 0001438  88.8188 271.2969 15.08837647 95182,6917.888,95.438,540.747,538.758,0.0
52662.0,STARLINK-4044,PAYLOAD,2024-02-02 05:06:12,15.08841342,0.0001858,53.2198,354.9729,68.592,291.5271,7.3049e-05,8.75e-06,0.0,0 STARLINK-4044,1 52662U 22053G   24033.21264251  .00000875  00000-0  73049-4 0  9995,2 52662  53.2198 354.9729 0001858  68.5920 291.5271 15.08841342 95335,6917.876,95.437,541.027,538.456,0.0
52662.0,STARLINK-4044,PAYLOAD,2024-02-02 21:00:03,15.0884051,0.000189,53.2195,352.0015,69.0956,291.0238,8.8688e-05,1.124e-05,0.0,0 STARLINK-4044,1 52662U 22053G   24033.87504224  .00001124  00000-0  88688-4 0  9997,2 52662  53.2195 352.0015 0001890  69.0956 291.0238 15.08840510 95435,6917.879,95.438,541.051,538.436,0.0
52662.0,STARLINK-4044,PAYLOAD,2024-02-03 06:32:21,15.08846913,0.0001701,53.2195,350.2129,80.409,279.7094,0.00012609,1.72e-05,0.0,0 STARLINK-4044,1 52662U 22053G   24034.27247651  .00001720  00000-0  12609-3 0  9991,2 52662  53.2195 350.2129 0001701  80.4090 279.7094 15.08846913 95490,6917.859,95.437,540.901,538.548,0.0
52662.0,STARLINK-4044,PAYLOAD,2024-02-04 03:12:23,15.08842901,0.0001598,53.219,346.3429,101.7577,258.3594,-3.6667e-05,-8.72e-06,0.0,0 STARLINK-4044,1 52662U 22053G   24035.13360182 -.00000872  00000-0 -36667-4 0  9992,2 52662  53.2190 346.3429 0001598 101.7577 258.3594 15.08842901 95621,6917.872,95.437,540.842,538.631,0.0
52662.0,STARLINK-4044,PAYLOAD,2024-02-04 06:23:09,15.08843593,0.0001662,53.2197,345.7461,109.5683,250.5488,-2.7575e-05,-7.27e-06,0.0,0 STARLINK-4044,1 52662U 22053G   24035.26608109 -.00000727  00000-0 -27575-4 0  9997,2 52662  53.2197 345.7461 0001662 109.5683 250.5488 15.08843593 95649,6917.869,95.437,540.884,538.585,0.0
52662.0,STARLINK-4044,PAYLOAD,2024-02-05 06:13:55,15.08849604,0.0001681,53.2194,341.2877,116.4839,243.6326,1.4093e-05,-6.4e-07,0.0,0 STARLINK-4044,1 52662U 22053G   24036.25967446 -.00000064  00000-0  14093-4 0  9993,2 52662  53.2194 341.2877 0001681 116.4839 243.6326 15.08849604 95798,6917.851,95.437,540.879,538.553,0.0
52662.0,STARLINK-4044,PAYLOAD,2024-02-06 02:53:56,15.08853513,0.0001276,53.2187,337.4228,93.0482,267.0657,0.00014946,2.092e-05,0.0,0 STARLINK-4044,1 52662U 22053G   24037.12078892  .00002092  00000-0  14946-3 0  9996,2 52662  53.2187 337.4228 0001276  93.0482 267.0657 15.08853513 95927,6917.839,95.437,540.587,538.821,0.0
52662.0,STARLINK-4044,PAYLOAD,2024-02-07 01:09:20,15.08845299,0.0001298,53.2189,333.2637,89.6663,270.4478,-4.0973e-05,-9.4e-06,0.0,0 STARLINK-4044,1 52662U 22053G   24038.04815910 -.00000940  00000-0 -40973-4 0  9990,2 52662  53.2189 333.2637 0001298  89.6663 270.4478 15.08845299 96060,6917.864,95.437,540.627,538.831,0.0
52662.0,STARLINK-4044,PAYLOAD,2024-02-07 12:17:03,15.08841094,0.0001301,53.2185,331.1824,89.4123,270.7018,-7.3329e-05,-1.455e-05,0.0,0 STARLINK-4044,1 52662U 22053G   24038.51184225 -.00001455  00000-0 -73329-4 0  9993,2 52662  53.2185 331.1824 0001301  89.4123 270.7018 15.08841094 96135,6917.877,95.437,540.642,538.842,0.0
52662.0,STARLINK-4044,PAYLOAD,2024-02-08 04:10:54,15.08846225,0.0001407,53.2186,328.2095,115.8736,244.2401,-1.1829e-05,-4.76e-06,0.0,0 STARLINK-4044,1 52662U 22053G   24039.17423945 -.00000476  00000-0 -11829-4 0  9990,2 52662  53.2186 328.2095 0001407 115.8736 244.2401 15.08846225 96238,6917.861,95.437,540.7,538.753,0.0
52662.0,STARLINK-4044,PAYLOAD,2024-02-09 04:01:41,15.08840632,0.0001519,53.2183,323.7491,90.2234,269.8932,0.00011603,1.559e-05,0.0,0 STARLINK-4044,1 52662U 22053G   24040.16784408  .00001559  00000-0  11603-3 0  9995,2 52662  53.2183 323.7491 0001519  90.2234 269.8932 15.08840632 96382,6917.878,95.438,540.794,538.693,0.0
52662.0,STARLINK-4044,PAYLOAD,2024-02-10 03:52:28,15.08845829,0.000145,53.2188,319.2848,103.9039,256.2114,7.5929e-05,9.21e-06,0.0,0 STARLINK-4044,1 52662U 22053G   24041.16144451  .00000921  00000-0  75929-4 0  9998,2 52662  53.2188 319.2848 0001450 103.9039 256.2114 15.08845829 96534,6917.863,95.437,540.731,538.724,0.0
52662.0,STARLINK-4044,PAYLOAD,2024-02-10 18:10:57,15.08838849,0.0001334,53.2187,316.6079,111.7152,248.3982,-6.5973e-05,-1.338e-05,0.0,0 STARLINK-4044,1 52662U 22053G   24041.75761516 -.00001338  00000-0 -65973-4 0  9993,2 52662  53.2187 316.6079 0001334 111.7152 248.3982 15.08838849 96623,6917.884,95.438,540.672,538.826,0.0
52662.0,STARLINK-4044,PAYLOAD,2024-02-10 22:57:06,15.08845102,0.0001719,53.2181,315.7198,104.2699,255.8484,-1.9354e-05,-5.96e-06,0.0,0 STARLINK-4044,1 52662U 22053G   24041.95632988 -.00000596  00000-0 -19354-4 0  9992,2 52662  53.2181 315.7198 0001719 104.2699 255.8484 15.08845102 96652,6917.865,95.437,540.919,538.541,0.0
52662.0,STARLINK-4044,PAYLOAD,2024-02-11 00:32:30,15.08844226,0.0001439,53.2176,315.4235,94.2127,265.9029,-1.9695e-05,-6.01e-06,0.0,0 STARLINK-4044,1 52662U 22053G   24042.02257060 -.00000601  00000-0 -19695-4 0  9990,2 52662  53.2176 315.4235 0001439  94.2127 265.9029 15.08844226 96662,6917.867,95.437,540.728,538.737,0.0
52662.0,STARLINK-4044,PAYLOAD,2024-02-11 21:12:30,15.08851657,0.0001698,53.2187,311.559,119.7794,240.3367,4.6912e-05,4.59e-06,0.0,0 STARLINK-4044,1 52662U 22053G   24042.88368292  .00000459  00000-0  46912-4 0  9995,2 52662  53.2187 311.5590 0001698 119.7794 240.3367 15.08851657 96797,6917.845,95.437,540.884,538.535,0.0
52662.0,STARLINK-4044,PAYLOAD,2024-02-12 03:34:01,15.08861635,0.0001622,53.2187,310.3657,111.2471,248.8694,0.00013141,1.805e-05,0.0,0 STARLINK-4044,1 52662U 22053G   24043.14863269  .00001805  00000-0  13141-3 0  9992,2 52662  53.2187 310.3657 0001622 111.2471 248.8694 15.08861635 96832,6917.814,95.436,540.801,538.557,0.0
52662.0,STARLINK-4044,PAYLOAD,2024-02-12 21:03:17,15.08844134,0.00025,53.2174,307.0831,143.3932,216.7232,-0.00011266,-2.081e-05,0.0,0 STARLINK-4044,1 52662U 22053G   24043.87729006 -.00002081  00000-0 -11266-3 0  9997,2 52662  53.2174 307.0831 0002500 143.3932 216.7232 15.08844134 96948,6917.868,95.437,541.462,538.003,0.0
52662.0,STARLINK-4044,PAYLOAD,2024-02-13 03:24:50,15.0883664,0.0001235,53.2174,305.9055,97.582,262.5313,1.4331e-06,-2.65e-06,0.0,0 STARLINK-4044,1 52662U 22053G   24044.14225474 -.00000265  00000-0  14331-5 0  9997,2 52662  53.2174 305.9055 0001235  97.5820 262.5313 15.08836640 96989,6917.891,95.438,540.61,538.901,0.0
